ONEWEB-0056             
1 45159U 20008AE  26096.89842408 -.00000646  00000+0 -18863-2 0  9995
2 45159  87.8827  50.4471 0001742  77.0474 283.0848 13.10372687298842
ONEWEB-0057             
1 45160U 20008AF  26096.90603126 -.00000451  00000+0 -13284-2 0  9997
2 45160  87.8830  50.4547 0001557  94.9839 265.1466 13.10373468299014
ONEWEB-0058             
1 45161U 20008AG  26096.89275081 -.00000640  00000+0 -18701-2 0  9990
2 45161  87.8825  50.4661 0002117  81.1525 278.9842 13.10370996299089
ONEWEB-0059             
1 45162U 20008AH  26096.88929416 -.00000542  00000+0 -15904-2 0  9991
2 45162  87.8821  50.4671 0001949  86.4666 273.6684 13.10373294298981
ONEWEB-0062             
1 45163U 20008AJ  26096.91504501  .00000040  00000+0  77165-4 0  9990
2 45163  87.8830  50.4454 0002287  75.6762 284.4619 13.10375511298852
ONEWEB-0065             
1 45164U 20008AK  26096.86925470  .00000335  00000+0  92396-3 0  9996
2 45164  87.8821  50.4622 0001497  82.0780 278.0518 13.10370065298546
ONEWEB-0066             
1 45424U 20020A   26096.88551622  .00000219  00000+0  58268-3 0  9996
2 45424  87.8923  35.2410 0001954  83.9094 276.2257 13.11417717293339
ONEWEB-0067             
1 45425U 20020B   26096.84735730  .00001767  00000+0  49584-2 0  9996
2 45425  87.8941  35.1599 0001818  84.4408 275.6928 13.11274740293381
ONEWEB-0080             
1 45426U 20020C   26096.84663959  .00002363  00000+0  66308-2 0  9996
2 45426  87.8918  35.2413 0002094  73.9808 286.1550 13.11397740293357
ONEWEB-0090             
1 45427U 20020D   26096.87548204 -.00000082  00000+0 -26708-3 0  9994
2 45427  87.8921  35.2411 0001908  78.1453 281.9889 13.11418480293326
ONEWEB-0061             
1 45428U 20020E   26096.83112366  .00000141  00000+0  36312-3 0  9993
2 45428  87.8913  35.2359 0001878  79.3888 280.7451 13.11414973293279
ONEWEB-0081             
1 45429U 20020F   26096.88892259  .00000603  00000+0  16662-2 0  9993
2 45429  87.8910  35.2388 0001822  86.0694 274.0642 13.11417577293392
ONEWEB-0069             
1 45430U 20020G   26096.87788992  .00000294  00000+0  79268-3 0  9990
2 45430  87.8916  35.2357 0001828  81.7829 278.3506 13.11417741293326
ONEWEB-0031             
1 45431U 20020H   26096.84989729 -.00000468  00000+0 -13576-2 0  9993
2 45431  87.8908  35.2574 0002009  75.5402 284.5949 13.11415356293307
ONEWEB-0027             
1 45432U 20020J   26096.84992789  .00000054  00000+0  10485-3 0  9990
2 45432  87.9194  20.0127 0001876  66.6144 293.5185 13.17647487296962
ONEWEB-0064             
1 45433U 20020K   26096.84820182 -.00000467  00000+0 -13522-2 0  9992
2 45433  87.8906  35.2480 0001945  74.6123 285.5220 13.11414861293337
