[{"OBJECT_NAME":"ONEWEB-0056","OBJECT_ID":"2020-008AE","EPOCH":"2026-04-06T21:33:43.840512","MEAN_MOTION":13.10372687,"ECCENTRICITY":0.0001742,"INCLINATION":87.8827,"RA_OF_ASC_NODE":50.4471,"ARG_OF_PERICENTER":77.0474,"MEAN_ANOMALY":283.0848,"EPHEMERIS_TYPE":0,"CLASSIFICATION_TYPE":"U","NORAD_CAT_ID":45159,"ELEMENT_SET_NO":999,"REV_AT_EPOCH":29884,"BSTAR":-0.0018863,"MEAN_MOTION_DOT":-6.46e-06,"MEAN_MOTION_DDOT":0.0},{"OBJECT_NAME":"ONEWEB-0057","OBJECT_ID":"2020-008AF","EPOCH":"2026-04-06T21:44:41.100864","MEAN_MOTION":13.10373468,"ECCENTRICITY":0.0001557,"INCLINATION":87.883,"RA_OF_ASC_NODE":50.4547,"ARG_OF_PERICENTER":94.9839,"MEAN_ANOMALY":265.1466,"EPHEMERIS_TYPE":0,"CLASSIFICATION_TYPE":"U","NORAD_CAT_ID":45160,"ELEMENT_SET_NO":999,"REV_AT_EPOCH":29901,"BSTAR":-0.0013284000000000002,"MEAN_MOTION_DOT":-4.51e-06,"MEAN_MOTION_DDOT":0.0},{"OBJECT_NAME":"ONEWEB-0058","OBJECT_ID":"2020-008AG","EPOCH":"2026-04-06T21:25:33.669984","MEAN_MOTION":13.10370996,"ECCENTRICITY":0.0002117,"INCLINATION":87.8825,"RA_OF_ASC_NODE":50.4661,"ARG_OF_PERICENTER":81.1525,"MEAN_ANOMALY":278.9842,"EPHEMERIS_TYPE":0,"CLASSIFICATION_TYPE":"U","NORAD_CAT_ID":45161,"ELEMENT_SET_NO":999,"REV_AT_EPOCH":29908,"BSTAR":-0.0018701000000000002,"MEAN_MOTION_DOT":-6.4e-06,"MEAN_MOTION_DDOT":0.0},{"OBJECT_NAME":"ONEWEB-0059","OBJECT_ID":"2020-008AH","EPOCH":"2026-04-06T21:20:35.015424","MEAN_MOTION":13.10373294,"ECCENTRICITY":0.0001949,"INCLINATION":87.8821,"RA_OF_ASC_NODE":50.4671,"ARG_OF_PERICENTER":86.4666,"MEAN_ANOMALY":273.6684,"EPHEMERIS_TYPE":0,"CLASSIFICATION_TYPE":"U","NORAD_CAT_ID":45162,"ELEMENT_SET_NO":999,"REV_AT_EPOCH":29898,"BSTAR":-0.0015903999999999998,"MEAN_MOTION_DOT":-5.42e-06,"MEAN_MOTION_DDOT":0.0},{"OBJECT_NAME":"ONEWEB-0062","OBJECT_ID":"2020-008AJ","EPOCH":"2026-04-06T21:57:39.888864","MEAN_MOTION":13.10375511,"ECCENTRICITY":0.0002287,"INCLINATION":87.883,"RA_OF_ASC_NODE":50.4454,"ARG_OF_PERICENTER":75.6762,"MEAN_ANOMALY":284.4619,"EPHEMERIS_TYPE":0,"CLASSIFICATION_TYPE":"U","NORAD_CAT_ID":45163,"ELEMENT_SET_NO":999,"REV_AT_EPOCH":29885,"BSTAR":7.7165e-05,"MEAN_MOTION_DOT":4e-07,"MEAN_MOTION_DDOT":0.0},{"OBJECT_NAME":"ONEWEB-0065","OBJECT_ID":"2020-008AK","EPOCH":"2026-04-06T20:51:43.606080","MEAN_MOTION":13.10370065,"ECCENTRICITY":0.0001497,"INCLINATION":87.8821,"RA_OF_ASC_NODE":50.4622,"ARG_OF_PERICENTER":82.078,"MEAN_ANOMALY":278.0518,"EPHEMERIS_TYPE":0,"CLASSIFICATION_TYPE":"U","NORAD_CAT_ID":45164,"ELEMENT_SET_NO":999,"REV_AT_EPOCH":29854,"BSTAR":0.00092396,"MEAN_MOTION_DOT":3.35e-06,"MEAN_MOTION_DDOT":0.0},{"OBJECT_NAME":"ONEWEB-0066","OBJECT_ID":"2020-020A","EPOCH":"2026-04-06T21:15:08.601408","MEAN_MOTION":13.11417717,"ECCENTRICITY":0.0001954,"INCLINATION":87.8923,"RA_OF_ASC_NODE":35.241,"ARG_OF_PERICENTER":83.9094,"MEAN_ANOMALY":276.2257,"EPHEMERIS_TYPE":0,"CLASSIFICATION_TYPE":"U","NORAD_CAT_ID":45424,"ELEMENT_SET_NO":999,"REV_AT_EPOCH":29333,"BSTAR":0.00058268,"MEAN_MOTION_DOT":2.19e-06,"MEAN_MOTION_DDOT":0.0},{"OBJECT_NAME":"ONEWEB-0067","OBJECT_ID":"2020-020B","EPOCH":"2026-04-06T20:20:11.670720","MEAN_MOTION":13.1127474,"ECCENTRICITY":0.0001818,"INCLINATION":87.8941,"RA_OF_ASC_NODE":35.1599,"ARG_OF_PERICENTER":84.4408,"MEAN_ANOMALY":275.6928,"EPHEMERIS_TYPE":0,"CLASSIFICATION_TYPE":"U","NORAD_CAT_ID":45425,"ELEMENT_SET_NO":999,"REV_AT_EPOCH":29338,"BSTAR":0.0049584,"MEAN_MOTION_DOT":1.767e-05,"MEAN_MOTION_DDOT":0.0},{"OBJECT_NAME":"ONEWEB-0080","OBJECT_ID":"2020-020C","EPOCH":"2026-04-06T20:19:09.660576","MEAN_MOTION":13.1139774,"ECCENTRICITY":0.0002094,"INCLINATION":87.8918,"RA_OF_ASC_NODE":35.2413,"ARG_OF_PERICENTER":73.9808,"MEAN_ANOMALY":286.155,"EPHEMERIS_TYPE":0,"CLASSIFICATION_TYPE":"U","NORAD_CAT_ID":45426,"ELEMENT_SET_NO":999,"REV_AT_EPOCH":29335,"BSTAR":0.0066308,"MEAN_MOTION_DOT":2.363e-05,"MEAN_MOTION_DDOT":0.0},{"OBJECT_NAME":"ONEWEB-0090","OBJECT_ID":"2020-020D","EPOCH":"2026-04-06T21:00:41.648256","MEAN_MOTION":13.1141848,"ECCENTRICITY":0.0001908,"INCLINATION":87.8921,"RA_OF_ASC_NODE":35.2411,"ARG_OF_PERICENTER":78.1453,"MEAN_ANOMALY":281.9889,"EPHEMERIS_TYPE":0,"CLASSIFICATION_TYPE":"U","NORAD_CAT_ID":45427,"ELEMENT_SET_NO":999,"REV_AT_EPOCH":29332,"BSTAR":-0.00026708,"MEAN_MOTION_DOT":-8.2e-07,"MEAN_MOTION_DDOT":0.0},{"OBJECT_NAME":"ONEWEB-0061","OBJECT_ID":"2020-020E","EPOCH":"2026-04-06T19:56:49.084224","MEAN_MOTION":13.11414973,"ECCENTRICITY":0.0001878,"INCLINATION":87.8913,"RA_OF_ASC_NODE":35.2359,"ARG_OF_PERICENTER":79.3888,"MEAN_ANOMALY":280.7451,"EPHEMERIS_TYPE":0,"CLASSIFICATION_TYPE":"U","NORAD_CAT_ID":45428,"ELEMENT_SET_NO":999,"REV_AT_EPOCH":29327,"BSTAR":0.00036312,"MEAN_MOTION_DOT":1.41e-06,"MEAN_MOTION_DDOT":0.0},{"OBJECT_NAME":"ONEWEB-0081","OBJECT_ID":"2020-020F","EPOCH":"2026-04-06T21:20:02.911776","MEAN_MOTION":13.11417577,"ECCENTRICITY":0.0001822,"INCLINATION":87.891,"RA_OF_ASC_NODE":35.2388,"ARG_OF_PERICENTER":86.0694,"MEAN_ANOMALY":274.0642,"EPHEMERIS_TYPE":0,"CLASSIFICATION_TYPE":"U","NORAD_CAT_ID":45429,"ELEMENT_SET_NO":999,"REV_AT_EPOCH":29339,"BSTAR":0.0016661999999999998,"MEAN_MOTION_DOT":6.03e-06,"MEAN_MOTION_DDOT":0.0},{"OBJECT_NAME":"ONEWEB-0069","OBJECT_ID":"2020-020G","EPOCH":"2026-04-06T21:04:09.689088","MEAN_MOTION":13.11417741,"ECCENTRICITY":0.0001828,"INCLINATION":87.8916,"RA_OF_ASC_NODE":35.2357,"ARG_OF_PERICENTER":81.7829,"MEAN_ANOMALY":278.3506,"EPHEMERIS_TYPE":0,"CLASSIFICATION_TYPE":"U","NORAD_CAT_ID":45430,"ELEMENT_SET_NO":999,"REV_AT_EPOCH":29332,"BSTAR":0.00079268,"MEAN_MOTION_DOT":2.94e-06,"MEAN_MOTION_DDOT":0.0},{"OBJECT_NAME":"ONEWEB-0031","OBJECT_ID":"2020-020H","EPOCH":"2026-04-06T20:23:51.125856","MEAN_MOTION":13.11415356,"ECCENTRICITY":0.0002009,"INCLINATION":87.8908,"RA_OF_ASC_NODE":35.2574,"ARG_OF_PERICENTER":75.5402,"MEAN_ANOMALY":284.5949,"EPHEMERIS_TYPE":0,"CLASSIFICATION_TYPE":"U","NORAD_CAT_ID":45431,"ELEMENT_SET_NO":999,"REV_AT_EPOCH":29330,"BSTAR":-0.0013576,"MEAN_MOTION_DOT":-4.68e-06,"MEAN_MOTION_DDOT":0.0},{"OBJECT_NAME":"ONEWEB-0027","OBJECT_ID":"2020-020J","EPOCH":"2026-04-06T20:23:53.769696","MEAN_MOTION":13.17647487,"ECCENTRICITY":0.0001876,"INCLINATION":87.9194,"RA_OF_ASC_NODE":20.0127,"ARG_OF_PERICENTER":66.6144,"MEAN_ANOMALY":293.5185,"EPHEMERIS_TYPE":0,"CLASSIFICATION_TYPE":"U","NORAD_CAT_ID":45432,"ELEMENT_SET_NO":999,"REV_AT_EPOCH":29696,"BSTAR":0.00010485,"MEAN_MOTION_DOT":5.4e-07,"MEAN_MOTION_DDOT":0.0},{"OBJECT_NAME":"ONEWEB-0064","OBJECT_ID":"2020-020K","EPOCH":"2026-04-06T20:21:24.637248","MEAN_MOTION":13.11414861,"ECCENTRICITY":0.0001945,"INCLINATION":87.8906,"RA_OF_ASC_NODE":35.248,"ARG_OF_PERICENTER":74.6123,"MEAN_ANOMALY":285.522,"EPHEMERIS_TYPE":0,"CLASSIFICATION_TYPE":"U","NORAD_CAT_ID":45433,"ELEMENT_SET_NO":999,"REV_AT_EPOCH":29333,"BSTAR":-0.0013522,"MEAN_MOTION_DOT":-4.67e-06,"MEAN_MOTION_DDOT":0.0}]